{"type": "FeatureCollection", "features": [ {"type": "Feature", "properties": {"norad_id": 29919, "name": "FENGYUN 1C DEB", "group": "fengyun-1c-debris", "lat": -21.182321139895354, "lon": -28.584750812788794, "alt_km": 969.2098605331748, "timestamp": "2025-12-27T17:24:57.677581+00:00", "meta": {"OBJECT_NAME": "FENGYUN 1C DEB", "OBJECT_ID": "1999-025HR", "EPOCH": "2025-12-27T05:10:13.723968", "MEAN_MOTION": 13.85129443, "ECCENTRICITY": 0.01368322, "INCLINATION": 98.4799, "RA_OF_ASC_NODE": 154.2679, "ARG_OF_PERICENTER": 303.988, "MEAN_ANOMALY": 236.0166, "EPHEMERIS_TYPE": 0, "CLASSIFICATION_TYPE": "U", "NORAD_CAT_ID": 29919, "ELEMENT_SET_NO": 999, "REV_AT_EPOCH": 95735, "BSTAR": 0.00021439879, "MEAN_MOTION_DOT": 2.22e-06, "MEAN_MOTION_DDOT": 0}, "tle": {"line1": "1 29919U 99025HR  25361.21543662  .00000222  00000+0  21440-3 0  9990", "line2": "2 29919  98.4799 154.2679 0136832 303.9880 236.0166 13.85129443957359"}}, "geometry": {"type": "Point", "coordinates": [-28.584750812788794, -21.182321139895354]}}, {"type": "Feature", "properties": {"norad_id": 29920, "name": "FENGYUN 1C DEB", "group": "fengyun-1c-debris", "lat": -0.05674513415907753, "lon": -144.91367362117006, "alt_km": 930.6357655941729, "timestamp": "2025-12-27T17:24:57.677592+00:00", "meta": {"OBJECT_NAME": "FENGYUN 1C DEB", "OBJECT_ID": "1999-025HS", "EPOCH": "2025-12-21T12:34:58.800288", "MEAN_MOTION": 14.03693596, "ECCENTRICITY": 0.01249732, "INCLINATION": 98.3912, "RA_OF_ASC_NODE": 209.3515, "ARG_OF_PERICENTER": 255.9523, "MEAN_ANOMALY": 102.7727, "EPHEMERIS_TYPE": 0, "CLASSIFICATION_TYPE": "U", "NORAD_CAT_ID": 29920, "ELEMENT_SET_NO": 999, "REV_AT_EPOCH": 96411, "BSTAR": 0.0011522683, "MEAN_MOTION_DOT": 1.901e-05, "MEAN_MOTION_DDOT": 0}, "tle": {"line1": "1 29920U 99025HS  25355.52429167  .00001901  00000+0  11523-2 0  9997", "line2": "2 29920  98.3912 209.3515 0124973 255.9523 102.7727 14.03693596964111"}}, "geometry": {"type": "Point", "coordinates": [-144.91367362117006, -0.05674513415907753]}}, {"type": "Feature", "properties": {"norad_id": 29921, "name": "FENGYUN 1C DEB", "group": "fengyun-1c-debris", "lat": -6.105128181052871, "lon": 8.35730963409124, "alt_km": 846.8521406588925, "timestamp": "2025-12-27T17:24:57.677602+00:00", "meta": {"OBJECT_NAME": "FENGYUN 1C DEB", "OBJECT_ID": "1999-025HT", "EPOCH": "2025-12-27T07:16:33.460320", "MEAN_MOTION": 14.06661748, "ECCENTRICITY": 0.00459787, "INCLINATION": 98.7868, "RA_OF_ASC_NODE": 6.9991, "ARG_OF_PERICENTER": 29.3304, "MEAN_ANOMALY": 346.5467, "EPHEMERIS_TYPE": 0, "CLASSIFICATION_TYPE": "U", "NORAD_CAT_ID": 29921, "ELEMENT_SET_NO": 999, "REV_AT_EPOCH": 97081, "BSTAR": 0.00049515276, "MEAN_MOTION_DOT": 7.87e-06, "MEAN_MOTION_DDOT": 0}, "tle": {"line1": "1 29921U 99025HT  25361.30316505  .00000787  00000+0  49515-3 0  9996", "line2": "2 29921  98.7868   6.9991 0045978  29.3304 346.5467 14.06661748970812"}}, "geometry": {"type": "Point", "coordinates": [8.35730963409124, -6.105128181052871]}}, {"type": "Feature", "properties": {"norad_id": 29922, "name": "FENGYUN 1C DEB", "group": "fengyun-1c-debris", "lat": 66.02557031017126, "lon": 37.908105383806785, "alt_km": 905.7574192378333, "timestamp": "2025-12-27T17:24:57.677613+00:00", "meta": {"OBJECT_NAME": "FENGYUN 1C DEB", "OBJECT_ID": "1999-025HU", "EPOCH": "2025-12-27T03:21:35.571456", "MEAN_MOTION": 13.98584597, "ECCENTRICITY": 0.00923848, "INCLINATION": 99.1329, "RA_OF_ASC_NODE": 58.532, "ARG_OF_PERICENTER": 327.2476, "MEAN_ANOMALY": 32.2981, "EPHEMERIS_TYPE": 0, "CLASSIFICATION_TYPE": "U", "NORAD_CAT_ID": 29922, "ELEMENT_SET_NO": 999, "REV_AT_EPOCH": 96642, "BSTAR": 0.00012805613, "MEAN_MOTION_DOT": 1.45e-06, "MEAN_MOTION_DDOT": 0}, "tle": {"line1": "1 29922U 99025HU  25361.13999504  .00000145  00000+0  12806-3 0  9995", "line2": "2 29922  99.1329  58.5320 0092384 327.2476  32.2981 13.98584597966420"}}, "geometry": {"type": "Point", "coordinates": [37.908105383806785, 66.02557031017126]}}, {"type": "Feature", "properties": {"norad_id": 29923, "name": "FENGYUN 1C DEB", "group": "fengyun-1c-debris", "lat": 12.618154436937159, "lon": 7.6343250238861105, "alt_km": 852.5772472250537, "timestamp": "2025-12-27T17:24:57.677623+00:00", "meta": {"OBJECT_NAME": "FENGYUN 1C DEB", "OBJECT_ID": "1999-025HV", "EPOCH": "2025-12-27T07:14:23.469792", "MEAN_MOTION": 14.1391844, "ECCENTRICITY": 0.00181084, "INCLINATION": 98.6879, "RA_OF_ASC_NODE": 9.1838, "ARG_OF_PERICENTER": 128.8413, "MEAN_ANOMALY": 247.1947, "EPHEMERIS_TYPE": 0, "CLASSIFICATION_TYPE": "U", "NORAD_CAT_ID": 29923, "ELEMENT_SET_NO": 999, "REV_AT_EPOCH": 97481, "BSTAR": 0.00050975344, "MEAN_MOTION_DOT": 9.26e-06, "MEAN_MOTION_DDOT": 0}, "tle": {"line1": "1 29923U 99025HV  25361.30166053  .00000926  00000+0  50975-3 0  9996", "line2": "2 29923  98.6879   9.1838 0018108 128.8413 247.1947 14.13918440974816"}}, "geometry": {"type": "Point", "coordinates": [7.6343250238861105, 12.618154436937159]}}, {"type": "Feature", "properties": {"norad_id": 29924, "name": "FENGYUN 1C DEB", "group": "fengyun-1c-debris", "lat": 74.36083726779418, "lon": -19.088821617671204, "alt_km": 869.9552029124688, "timestamp": "2025-12-27T17:24:57.677633+00:00", "meta": {"OBJECT_NAME": "FENGYUN 1C DEB", "OBJECT_ID": "1999-025HW", "EPOCH": "2025-12-27T00:08:32.931744", "MEAN_MOTION": 14.08893983, "ECCENTRICITY": 0.00263037, "INCLINATION": 98.7337, "RA_OF_ASC_NODE": 13.5202, "ARG_OF_PERICENTER": 216.0741, "MEAN_ANOMALY": 172.6808, "EPHEMERIS_TYPE": 0, "CLASSIFICATION_TYPE": "U", "NORAD_CAT_ID": 29924, "ELEMENT_SET_NO": 999, "REV_AT_EPOCH": 97409, "BSTAR": 2.2994379e-05, "MEAN_MOTION_DOT": -3e-08, "MEAN_MOTION_DDOT": 0}, "tle": {"line1": "1 29924U 99025HW  25361.00593671 -.00000003  00000+0  22994-4 0  9992", "line2": "2 29924  98.7337  13.5202 0026303 216.0741 172.6808 14.08893983974097"}}, "geometry": {"type": "Point", "coordinates": [-19.088821617671204, 74.36083726779418]}}, {"type": "Feature", "properties": {"norad_id": 29926, "name": "FENGYUN 1C DEB", "group": "fengyun-1c-debris", "lat": -3.119925465306842, "lon": 169.5470698274403, "alt_km": 725.6361877204417, "timestamp": "2025-12-27T17:24:57.677643+00:00", "meta": {"OBJECT_NAME": "FENGYUN 1C DEB", "OBJECT_ID": "1999-025HY", "EPOCH": "2025-12-27T06:34:08.385888", "MEAN_MOTION": 14.33431015, "ECCENTRICITY": 0.02479146, "INCLINATION": 98.2845, "RA_OF_ASC_NODE": 349.569, "ARG_OF_PERICENTER": 256.6597, "MEAN_ANOMALY": 118.1424, "EPHEMERIS_TYPE": 0, "CLASSIFICATION_TYPE": "U", "NORAD_CAT_ID": 29926, "ELEMENT_SET_NO": 999, "REV_AT_EPOCH": 98789, "BSTAR": 0.00033530275, "MEAN_MOTION_DOT": 1.252e-05, "MEAN_MOTION_DDOT": 0}, "tle": {"line1": "1 29926U 99025HY  25361.27370817  .00001252  00000+0  33530-3 0  9991", "line2": "2 29926  98.2845 349.5690 0247914 256.6597 118.1424 14.33431015987896"}}, "geometry": {"type": "Point", "coordinates": [169.5470698274403, -3.119925465306842]}}, {"type": "Feature", "properties": {"norad_id": 29927, "name": "FENGYUN 1C DEB", "group": "fengyun-1c-debris", "lat": 26.29206501021332, "lon": 22.952248407896057, "alt_km": 653.2923053554068, "timestamp": "2025-12-27T17:24:57.677654+00:00", "meta": {"OBJECT_NAME": "FENGYUN 1C DEB", "OBJECT_ID": "1999-025HZ", "EPOCH": "2025-12-27T01:08:39.672096", "MEAN_MOTION": 14.75088251, "ECCENTRICITY": 0.00181013, "INCLINATION": 99.0834, "RA_OF_ASC_NODE": 26.7256, "ARG_OF_PERICENTER": 167.0934, "MEAN_ANOMALY": 221.5495, "EPHEMERIS_TYPE": 0, "CLASSIFICATION_TYPE": "U", "NORAD_CAT_ID": 29927, "ELEMENT_SET_NO": 999, "REV_AT_EPOCH": 98858, "BSTAR": 0.003479961, "MEAN_MOTION_DOT": 0.00023534, "MEAN_MOTION_DDOT": 0}, "tle": {"line1": "1 29927U 99025HZ  25361.04768139  .00023534  00000+0  34800-2 0  9992", "line2": "2 29927  99.0834  26.7256 0018101 167.0934 221.5495 14.75088251988580"}}, "geometry": {"type": "Point", "coordinates": [22.952248407896057, 26.29206501021332]}}, {"type": "Feature", "properties": {"norad_id": 29928, "name": "FENGYUN 1C DEB", "group": "fengyun-1c-debris", "lat": 32.62830431915252, "lon": -147.4004292342681, "alt_km": 919.8044468021099, "timestamp": "2025-12-27T17:24:57.677664+00:00", "meta": {"OBJECT_NAME": "FENGYUN 1C DEB", "OBJECT_ID": "1999-025JA", "EPOCH": "2025-12-27T01:28:34.330944", "MEAN_MOTION": 13.88108702, "ECCENTRICITY": 0.0142988, "INCLINATION": 99.5832, "RA_OF_ASC_NODE": 25.7086, "ARG_OF_PERICENTER": 65.0675, "MEAN_ANOMALY": 2.9002, "EPHEMERIS_TYPE": 0, "CLASSIFICATION_TYPE": "U", "NORAD_CAT_ID": 29928, "ELEMENT_SET_NO": 999, "REV_AT_EPOCH": 95690, "BSTAR": 0.00068576902, "MEAN_MOTION_DOT": 8.41e-06, "MEAN_MOTION_DDOT": 0}, "tle": {"line1": "1 29928U 99025JA  25361.06150846  .00000841  00000+0  68577-3 0  9990", "line2": "2 29928  99.5832  25.7086 0142988  65.0675   2.9002 13.88108702956907"}}, "geometry": {"type": "Point", "coordinates": [-147.4004292342681, 32.62830431915252]}}, {"type": "Feature", "properties": {"norad_id": 29929, "name": "FENGYUN 1C DEB", "group": "fengyun-1c-debris", "lat": 1.8163251057110716, "lon": -80.12345821923347, "alt_km": 955.3632675582112, "timestamp": "2025-12-27T17:24:57.677674+00:00", "meta": {"OBJECT_NAME": "FENGYUN 1C DEB", "OBJECT_ID": "1999-025JB", "EPOCH": "2025-12-27T00:20:51.755424", "MEAN_MOTION": 14.0140526, "ECCENTRICITY": 0.0131931, "INCLINATION": 98.6246, "RA_OF_ASC_NODE": 279.48, "ARG_OF_PERICENTER": 136.203, "MEAN_ANOMALY": 240.9215, "EPHEMERIS_TYPE": 0, "CLASSIFICATION_TYPE": "U", "NORAD_CAT_ID": 29929, "ELEMENT_SET_NO": 999, "REV_AT_EPOCH": 96156, "BSTAR": 0.0011653347, "MEAN_MOTION_DOT": 1.857e-05, "MEAN_MOTION_DDOT": 0}, "tle": {"line1": "1 29929U 99025JB  25361.01448791  .00001857  00000+0  11653-2 0  9995", "line2": "2 29929  98.6246 279.4800 0131931 136.2030 240.9215 14.01405260961564"}}, "geometry": {"type": "Point", "coordinates": [-80.12345821923347, 1.8163251057110716]}}]}